GLOBALSTAR M057 [-]     
1 25943U 99058A   23239.22980928 -.00000144  00000+0 -46365-3 0  9990
2 25943  51.9989  61.0582 0003458  92.6071 267.5175 12.24771348 86065
GLOBALSTAR M059 [-]     
1 25944U 99058B   23239.30997911 -.00000104  00000+0 -21654-3 0  9990
2 25944  52.0000 192.3077 0000553  61.2692  91.5416 11.99952978494824
GLOBALSTAR M056 [-]     
1 25945U 99058C   23239.37444712 -.00000113  00000+0 -29484-3 0  9993
2 25945  51.9941 211.0473 0001018 311.5760 204.1718 12.04768176 83092
GLOBALSTAR M031 [-]     
1 25946U 99058D   23239.22202812 -.00000099  00000+0 -87603-4 0  9992
2 25946  51.9959 143.2635 0001322 300.5929 225.0847 12.15994624 84256
GLOBALSTAR M039 [-]     
1 25961U 99062A   23239.10350760 -.00000083  00000+0  11491-3 0  9990
2 25961  51.9837 119.0969 0002843 340.4154  19.6603 12.62268917 96858
GLOBALSTAR M034 [-]     
1 25962U 99062B   23239.17228354 -.00000069  00000+0  18583-3 0  9994
2 25962  51.9869 286.9979 0014092 233.7538 161.9048 11.79414272 60510
GLOBALSTAR M029 [-]     
1 25963U 99062C   23239.33404149 -.00000085  00000+0  12728-4 0  9995
2 25963  51.9799  80.8408 0001788 268.1239 146.4888 11.99866790 89912
